{
    "links": {
        "self": "http://www.neowsapp.com/rest/v1/neo/3291099?api_key=iIulBulltgU6a56xZRHN4H3l9WmuAYTsLGpBGhQ2"
    },
    "id": "3291099",
    "neo_reference_id": "3291099",
    "name": "(2005 SO1)",
    "designation": "2005 SO1",
    "nasa_jpl_url": "http://ssd.jpl.nasa.gov/sbdb.cgi?sstr=3291099",
    "absolute_magnitude_h": 25.4,
    "estimated_diameter": {
        "kilometers": {
            "estimated_diameter_min": 0.022108281,
            "estimated_diameter_max": 0.0494356193
        },
        "meters": {
            "estimated_diameter_min": 22.1082810359,
            "estimated_diameter_max": 49.435619262
        },
        "miles": {
            "estimated_diameter_min": 0.0137374447,
            "estimated_diameter_max": 0.0307178602
        },
        "feet": {
            "estimated_diameter_min": 72.5337327539,
            "estimated_diameter_max": 162.1903570994
        }
    },
    "is_potentially_hazardous_asteroid": false,
    "close_approach_data": [
        {
            "close_approach_date": "2005-09-19",
            "close_approach_date_full": "2005-Sep-19 08:00",
            "epoch_date_close_approach": 1127116800000,
            "relative_velocity": {
                "kilometers_per_second": "12.1120341002",
                "kilometers_per_hour": "43603.3227605695",
                "miles_per_hour": "27093.4090786439"
            },
            "miss_distance": {
                "astronomical": "0.0123821404",
                "lunar": "4.8166526156",
                "kilometers": "1852341.829880948",
                "miles": "1150991.8408871624"
            },
            "orbiting_body": "Earth"
        }
    ],
    "orbital_data": {
        "orbit_id": "9",
        "orbit_determination_date": "2017-04-06 09:10:28",
        "first_observation_date": "2005-09-23",
        "last_observation_date": "2005-10-07",
        "data_arc_in_days": 14,
        "observations_used": 55,
        "orbit_uncertainty": "7",
        "minimum_orbit_intersection": ".00582109",
        "jupiter_tisserand_invariant": "3.451",
        "epoch_osculation": "2459000.5",
        "eccentricity": ".5772882472542451",
        "semi_major_axis": "2.166864002093034",
        "inclination": "5.236578464254976",
        "ascending_node_longitude": "358.7905229899909",
        "orbital_period": "1165.053607547625",
        "perihelion_distance": ".9159588802864274",
        "perihelion_argument": "315.6128859671863",
        "aphelion_distance": "3.41776912389964",
        "perihelion_time": "2459428.208426326473",
        "mean_anomaly": "227.8386707014799",
        "mean_motion": ".3089986569440187",
        "equinox": "J2000",
        "orbit_class": {
            "orbit_class_type": "APO",
            "orbit_class_description": "Near-Earth asteroid orbits which cross the Earth’s orbit similar to that of 1862 Apollo",
            "orbit_class_range": "a (semi-major axis) > 1.0 AU; q (perihelion) < 1.017 AU"
        }
    },
    "is_sentry_object": false
}